start=new Date('2023-05-07T00:00:00.000Z').valueOf();
sats=[{"TLE_LINE2":"2 51147  53.2177 289.0983 0000820  84.4191 275.6895 15.08844387 71885","CENTER_NAME":"EARTH","PERIAPSIS":"539.165","ARG_OF_PERICENTER":"84.4191","FILE":"3902298","MEAN_MOTION_DDOT":"0.0000000000000","REF_FRAME":"TEME","REV_AT_EPOCH":"7188","TLE_LINE1":"1 51147U 22005AV  23126.64168363  .00000871  00000-0  72765-4 0  9995","TIME_SYSTEM":"UTC","MEAN_MOTION_DOT":"0.00000871","NORAD_CAT_ID":"51147","ECCENTRICITY":"0.00008200","INCLINATION":"53.2177","GP_ID":"231352059","COUNTRY_CODE":"US","ELEMENT_SET_NO":"999","SITE":"AFETR","PERIOD":"95.437","MEAN_MOTION":"15.08844387","MEAN_ELEMENT_THEORY":"SGP4","OBJECT_NAME":"STARLINK-3352","EPOCH":"2023-05-06T15:24:01.465632","CLASSIFICATION_TYPE":"U","EPHEMERIS_TYPE":"0","OBJECT_TYPE":"PAYLOAD","SEMIMAJOR_AXIS":"6917.867","LAUNCH_DATE":"2022-01-19","BSTAR":"0.00007276500000","MEAN_ANOMALY":"275.6895","OBJECT_ID":"2022-005AV","DECAY_DATE":null,"RCS_SIZE":"LARGE","RA_OF_ASC_NODE":"289.0983","APOAPSIS":"540.299"},{"FILE":"3902298","MEAN_MOTION_DDOT":"0.0000000000000","REF_FRAME":"TEME","REV_AT_EPOCH":"7185","TLE_LINE1":"1 51148U 22005AW  23126.43288550  .00001437  00000-0  10836-3 0  9993","TIME_SYSTEM":"UTC","CENTER_NAME":"EARTH","TLE_LINE2":"2 51148  53.2168 290.0448 0000645  94.5546 265.5520 15.08837643 71852","ARG_OF_PERICENTER":"94.5546","PERIAPSIS":"539.306","GP_ID":"231352309","COUNTRY_CODE":"US","ELEMENT_SET_NO":"999","MEAN_MOTION_DOT":"0.00001437","NORAD_CAT_ID":"51148","ECCENTRICITY":"0.00006450","INCLINATION":"53.2168","OBJECT_NAME":"STARLINK-3359","MEAN_ELEMENT_THEORY":"SGP4","MEAN_MOTION":"15.08837643","EPOCH":"2023-05-06T10:23:21.307200","CLASSIFICATION_TYPE":"U","EPHEMERIS_TYPE":"0","OBJECT_TYPE":"PAYLOAD","SITE":"AFETR","PERIOD":"95.438","DECAY_DATE":null,"RCS_SIZE":"LARGE","RA_OF_ASC_NODE":"290.0448","APOAPSIS":"540.199","LAUNCH_DATE":"2022-01-19","SEMIMAJOR_AXIS":"6917.888","BSTAR":"0.00010836000000","MEAN_ANOMALY":"265.5520","OBJECT_ID":"2022-005AW"},{"CLASSIFICATION_TYPE":"U","OBJECT_TYPE":"PAYLOAD","EPHEMERIS_TYPE":"0","EPOCH":"2023-05-06T10:16:40.007712","OBJECT_NAME":"STARLINK-3360","MEAN_MOTION":"15.08841774","MEAN_ELEMENT_THEORY":"SGP4","SITE":"AFETR","PERIOD":"95.437","DECAY_DATE":null,"APOAPSIS":"540.282","RCS_SIZE":"LARGE","RA_OF_ASC_NODE":"290.0573","MEAN_ANOMALY":"281.7067","OBJECT_ID":"2022-005AX","SEMIMAJOR_AXIS":"6917.875","LAUNCH_DATE":"2022-01-19","BSTAR":"0.00009404300000","REV_AT_EPOCH":"7185","REF_FRAME":"TEME","TIME_SYSTEM":"UTC","TLE_LINE1":"1 51149U 22005AX  23126.42824083  .00001209  00000-0  94043-4 0  9990","FILE":"3902298","MEAN_MOTION_DDOT":"0.0000000000000","ARG_OF_PERICENTER":"78.4013","PERIAPSIS":"539.198","CENTER_NAME":"EARTH","TLE_LINE2":"2 51149  53.2157 290.0573 0000783  78.4013 281.7067 15.08841774 71859","ELEMENT_SET_NO":"999","GP_ID":"231353060","COUNTRY_CODE":"US","MEAN_MOTION_DOT":"0.00001209","INCLINATION":"53.2157","ECCENTRICITY":"0.00007830","NORAD_CAT_ID":"51149"},{"CLASSIFICATION_TYPE":"U","OBJECT_TYPE":"PAYLOAD","EPHEMERIS_TYPE":"0","EPOCH":"2023-05-06T15:37:19.920000","MEAN_ELEMENT_THEORY":"SGP4","MEAN_MOTION":"15.08839108","OBJECT_NAME":"STARLINK-3357","PERIOD":"95.438","SITE":"AFETR","DECAY_DATE":null,"APOAPSIS":"540.557","RA_OF_ASC_NODE":"279.0650","RCS_SIZE":"LARGE","MEAN_ANOMALY":"264.4139","OBJECT_ID":"2022-005AY","SEMIMAJOR_AXIS":"6917.883","LAUNCH_DATE":"2022-01-19","BSTAR":"0.00006484600000","REV_AT_EPOCH":"7203","REF_FRAME":"TEME","TIME_SYSTEM":"UTC","TLE_LINE1":"1 51150U 22005AY  23126.65092500  .00000744  00000-0  64846-4 0  9999","FILE":"3902298","MEAN_MOTION_DDOT":"0.0000000000000","ARG_OF_PERICENTER":"95.6986","PERIAPSIS":"538.939","CENTER_NAME":"EARTH","TLE_LINE2":"2 51150  53.2164 279.0650 0001169  95.6986 264.4139 15.08839108 72038","ELEMENT_SET_NO":"999","GP_ID":"231353303","COUNTRY_CODE":"US","MEAN_MOTION_DOT":"0.00000744","INCLINATION":"53.2164","NORAD_CAT_ID":"51150","ECCENTRICITY":"0.00011690"},{"PERIAPSIS":"539.101","ARG_OF_PERICENTER":"78.2748","CENTER_NAME":"EARTH","TLE_LINE2":"2 51151  53.2159 289.4973 0000952  78.2748 281.8351 15.08835323 71873","REF_FRAME":"TEME","REV_AT_EPOCH":"7187","TLE_LINE1":"1 51151U 22005AZ  23126.55336960  .00000251  00000-0  33862-4 0  9997","TIME_SYSTEM":"UTC","FILE":"3902298","MEAN_MOTION_DDOT":"0.0000000000000","MEAN_MOTION_DOT":"0.00000251","NORAD_CAT_ID":"51151","ECCENTRICITY":"0.00009520","INCLINATION":"53.2159","ELEMENT_SET_NO":"999","GP_ID":"231351559","COUNTRY_CODE":"US","PERIOD":"95.438","SITE":"AFETR","CLASSIFICATION_TYPE":"U","EPHEMERIS_TYPE":"0","OBJECT_TYPE":"PAYLOAD","OBJECT_NAME":"STARLINK-3361","MEAN_ELEMENT_THEORY":"SGP4","MEAN_MOTION":"15.08835323","EPOCH":"2023-05-06T13:16:51.133440","MEAN_ANOMALY":"281.8351","OBJECT_ID":"2022-005AZ","SEMIMAJOR_AXIS":"6917.895","LAUNCH_DATE":"2022-01-19","BSTAR":"0.00003386200000","DECAY_DATE":null,"RCS_SIZE":"LARGE","RA_OF_ASC_NODE":"289.4973","APOAPSIS":"540.418"},{"MEAN_MOTION_DOT":"0.00000967","NORAD_CAT_ID":"51152","ECCENTRICITY":"0.00004540","INCLINATION":"53.2169","ELEMENT_SET_NO":"999","GP_ID":"231351809","COUNTRY_CODE":"US","PERIAPSIS":"539.413","ARG_OF_PERICENTER":"99.3852","TLE_LINE2":"2 51152  53.2169 289.4790 0000454  99.3852 260.7191 15.08846001 71872","CENTER_NAME":"EARTH","REF_FRAME":"TEME","REV_AT_EPOCH":"7187","TLE_LINE1":"1 51152U 22005BA  23126.55704376  .00000967  00000-0  78770-4 0  9999","TIME_SYSTEM":"UTC","FILE":"3902298","MEAN_MOTION_DDOT":"0.0000000000000","MEAN_ANOMALY":"260.7191","OBJECT_ID":"2022-005BA","LAUNCH_DATE":"2022-01-19","SEMIMAJOR_AXIS":"6917.862","BSTAR":"0.00007877000000","DECAY_DATE":null,"RCS_SIZE":"LARGE","RA_OF_ASC_NODE":"289.4790","APOAPSIS":"540.041","PERIOD":"95.437","SITE":"AFETR","CLASSIFICATION_TYPE":"U","EPHEMERIS_TYPE":"0","OBJECT_TYPE":"PAYLOAD","MEAN_MOTION":"15.08846001","OBJECT_NAME":"STARLINK-3364","MEAN_ELEMENT_THEORY":"SGP4","EPOCH":"2023-05-06T13:22:08.580864"},{"CENTER_NAME":"EARTH","TLE_LINE2":"2 51460  53.2160 259.4156 0000584  83.4942 276.6116 15.08849294 70101","ARG_OF_PERICENTER":"83.4942","PERIAPSIS":"539.313","FILE":"3902298","MEAN_MOTION_DDOT":"0.0000000000000","REV_AT_EPOCH":"7010","REF_FRAME":"TEME","TIME_SYSTEM":"UTC","TLE_LINE1":"1 51460U 22010E   23126.57083901  .00001745  00000-0  12767-3 0  9991","MEAN_MOTION_DOT":"0.00001745","INCLINATION":"53.2160","ECCENTRICITY":"0.00005840","NORAD_CAT_ID":"51460","GP_ID":"231352564","COUNTRY_CODE":"US","ELEMENT_SET_NO":"999","PERIOD":"95.437","SITE":"AFETR","EPOCH":"2023-05-06T13:42:00.490464","MEAN_MOTION":"15.08849294","MEAN_ELEMENT_THEORY":"SGP4","OBJECT_NAME":"STARLINK-3167","CLASSIFICATION_TYPE":"U","OBJECT_TYPE":"PAYLOAD","EPHEMERIS_TYPE":"0","SEMIMAJOR_AXIS":"6917.852","LAUNCH_DATE":"2022-02-03","BSTAR":"0.00012767000000","MEAN_ANOMALY":"276.6116","OBJECT_ID":"2022-010E","DECAY_DATE":null,"APOAPSIS":"540.121","RCS_SIZE":"LARGE","RA_OF_ASC_NODE":"259.4156"},{"SITE":"AFETR","PERIOD":"95.437","EPOCH":"2023-05-06T14:08:30.805152","MEAN_ELEMENT_THEORY":"SGP4","OBJECT_NAME":"STARLINK-3181","MEAN_MOTION":"15.08854923","OBJECT_TYPE":"PAYLOAD","EPHEMERIS_TYPE":"0","CLASSIFICATION_TYPE":"U","BSTAR":"0.00038236000000","SEMIMAJOR_AXIS":"6917.835","LAUNCH_DATE":"2022-02-03","OBJECT_ID":"2022-010F","MEAN_ANOMALY":"282.4687","APOAPSIS":"540.335","RCS_SIZE":"LARGE","RA_OF_ASC_NODE":"259.3296","DECAY_DATE":null,"TLE_LINE2":"2 51461  53.2159 259.3296 0000918  77.6408 282.4687 15.08854923 70100","CENTER_NAME":"EARTH","ARG_OF_PERICENTER":"77.6408","PERIAPSIS":"539.065","MEAN_MOTION_DDOT":"0.0000000000000","FILE":"3902298","TIME_SYSTEM":"UTC","TLE_LINE1":"1 51461U 22010F   23126.58924543  .00005805  00000-0  38236-3 0  9999","REV_AT_EPOCH":"7010","REF_FRAME":"TEME","INCLINATION":"53.2159","ECCENTRICITY":"0.00009180","NORAD_CAT_ID":"51461","MEAN_MOTION_DOT":"0.00005805","COUNTRY_CODE":"US","GP_ID":"231352806","ELEMENT_SET_NO":"999"},{"LAUNCH_DATE":"2022-02-03","SEMIMAJOR_AXIS":"6917.815","BSTAR":"0.00056470000000","MEAN_ANOMALY":"264.7280","OBJECT_ID":"2022-010G","DECAY_DATE":null,"RA_OF_ASC_NODE":"259.0542","RCS_SIZE":"LARGE","APOAPSIS":"540.444","SITE":"AFETR","PERIOD":"95.436","MEAN_ELEMENT_THEORY":"SGP4","OBJECT_NAME":"STARLINK-3166","MEAN_MOTION":"15.08861425","EPOCH":"2023-05-06T15:39:57.883392","CLASSIFICATION_TYPE":"U","EPHEMERIS_TYPE":"0","OBJECT_TYPE":"PAYLOAD","MEAN_MOTION_DOT":"0.00008716","NORAD_CAT_ID":"51462","ECCENTRICITY":"0.00011050","INCLINATION":"53.2152","GP_ID":"231352063","COUNTRY_CODE":"US","ELEMENT_SET_NO":"999","CENTER_NAME":"EARTH","TLE_LINE2":"2 51462  53.2152 259.0542 0001105  95.3838 264.7280 15.08861425 70116","PERIAPSIS":"538.915","ARG_OF_PERICENTER":"95.3838","FILE":"3902298","MEAN_MOTION_DDOT":"0.0000000000000","REF_FRAME":"TEME","REV_AT_EPOCH":"7011","TLE_LINE1":"1 51462U 22010G   23126.65275328  .00008716  00000-0  56470-3 0  9992","TIME_SYSTEM":"UTC"},{"GP_ID":"231352313","COUNTRY_CODE":"US","ELEMENT_SET_NO":"999","MEAN_MOTION_DOT":"0.00005549","INCLINATION":"53.2165","ECCENTRICITY":"0.00008150","NORAD_CAT_ID":"51463","FILE":"3902298","MEAN_MOTION_DDOT":"0.0000000000000","REV_AT_EPOCH":"6979","REF_FRAME":"TEME","TIME_SYSTEM":"UTC","TLE_LINE1":"1 51463U 22010H   23126.55980399  .00005549  00000-0  36634-3 0  9994","TLE_LINE2":"2 51463  53.2165 259.4647 0000815  65.2330 294.8747 15.08849658 69799","CENTER_NAME":"EARTH","ARG_OF_PERICENTER":"65.2330","PERIAPSIS":"539.152","DECAY_DATE":null,"APOAPSIS":"540.280","RCS_SIZE":"LARGE","RA_OF_ASC_NODE":"259.4647","SEMIMAJOR_AXIS":"6917.851","LAUNCH_DATE":"2022-02-03","BSTAR":"0.00036634000000","MEAN_ANOMALY":"294.8747","OBJECT_ID":"2022-010H","EPOCH":"2023-05-06T13:26:07.064736","OBJECT_NAME":"STARLINK-3419","MEAN_MOTION":"15.08849658","MEAN_ELEMENT_THEORY":"SGP4","CLASSIFICATION_TYPE":"U","OBJECT_TYPE":"PAYLOAD","EPHEMERIS_TYPE":"0","SITE":"AFETR","PERIOD":"95.437"}];
